start=new Date('2022-01-16T00:00:00.000Z').valueOf();
sats=[{"MEAN_ANOMALY":"294.7034","GP_ID":"193947600","COUNTRY_CODE":"US","EPHEMERIS_TYPE":"0","OBJECT_NAME":"STARLINK-2032","RCS_SIZE":"LARGE","PERIAPSIS":"546.017","TLE_LINE2":"2 47649  53.0550   8.3305 0001708  65.4133 294.7034 15.06404596 52070","INCLINATION":"53.0550","ELEMENT_SET_NO":"999","CLASSIFICATION_TYPE":"U","MEAN_MOTION":"15.06404596","SITE":"AFETR","OBJECT_ID":"2021-012AF","OBJECT_TYPE":"PAYLOAD","ECCENTRICITY":"0.00017080","SEMIMAJOR_AXIS":"6925.334","NORAD_CAT_ID":"47649","EPOCH":"2022-01-15T16:01:59.929536","TIME_SYSTEM":"UTC","MEAN_MOTION_DDOT":"0.0000000000000","FILE":"3274074","PERIOD":"95.592","CENTER_NAME":"EARTH","REF_FRAME":"TEME","DECAY_DATE":null,"MEAN_ELEMENT_THEORY":"SGP4","ARG_OF_PERICENTER":"65.4133","APOAPSIS":"548.382","LAUNCH_DATE":"2021-02-16","MEAN_MOTION_DOT":"0.00002347","RA_OF_ASC_NODE":"8.3305","TLE_LINE1":"1 47649U 21012AF  22015.66805474  .00002347  00000-0  17640-3 0  9993","BSTAR":"0.00017640000000","REV_AT_EPOCH":"5207"},{"EPHEMERIS_TYPE":"0","COUNTRY_CODE":"US","RCS_SIZE":"LARGE","OBJECT_NAME":"STARLINK-2033","MEAN_ANOMALY":"311.5090","GP_ID":"193921865","ELEMENT_SET_NO":"999","SITE":"AFETR","OBJECT_ID":"2021-012AG","MEAN_MOTION":"15.06401764","CLASSIFICATION_TYPE":"U","PERIAPSIS":"545.676","INCLINATION":"53.0567","TLE_LINE2":"2 47650  53.0567   9.2922 0002213  48.6089 311.5090 15.06401764 51512","TIME_SYSTEM":"UTC","PERIOD":"95.592","FILE":"3273918","MEAN_MOTION_DDOT":"0.0000000000000","EPOCH":"2022-01-15T10:54:09.027360","SEMIMAJOR_AXIS":"6925.343","NORAD_CAT_ID":"47650","ECCENTRICITY":"0.00022130","OBJECT_TYPE":"PAYLOAD","BSTAR":"0.00002366600000","TLE_LINE1":"1 47650U 21012AG  22015.45427115  .00000071  00000-0  23666-4 0  9992","RA_OF_ASC_NODE":"9.2922","MEAN_MOTION_DOT":"0.00000071","LAUNCH_DATE":"2021-02-16","APOAPSIS":"548.741","REV_AT_EPOCH":"5151","DECAY_DATE":null,"REF_FRAME":"TEME","CENTER_NAME":"EARTH","ARG_OF_PERICENTER":"48.6089","MEAN_ELEMENT_THEORY":"SGP4"},{"CLASSIFICATION_TYPE":"U","MEAN_MOTION":"15.06411912","SITE":"AFETR","OBJECT_ID":"2021-012AH","ELEMENT_SET_NO":"999","TLE_LINE2":"2 47651  53.0556  27.9489 0001529  72.3356 287.7800 15.06411912 51807","INCLINATION":"53.0556","PERIAPSIS":"546.118","OBJECT_NAME":"STARLINK-2035","RCS_SIZE":"LARGE","COUNTRY_CODE":"US","EPHEMERIS_TYPE":"0","GP_ID":"193947103","MEAN_ANOMALY":"287.7800","REV_AT_EPOCH":"5180","LAUNCH_DATE":"2021-02-16","MEAN_MOTION_DOT":"0.00001416","APOAPSIS":"548.236","RA_OF_ASC_NODE":"27.9489","TLE_LINE1":"1 47651U 21012AH  22015.75372437  .00001416  00000-0  11393-3 0  9999","BSTAR":"0.00011393000000","MEAN_ELEMENT_THEORY":"SGP4","ARG_OF_PERICENTER":"72.3356","CENTER_NAME":"EARTH","DECAY_DATE":null,"REF_FRAME":"TEME","MEAN_MOTION_DDOT":"0.0000000000000","FILE":"3274074","PERIOD":"95.591","TIME_SYSTEM":"UTC","OBJECT_TYPE":"PAYLOAD","ECCENTRICITY":"0.00015290","NORAD_CAT_ID":"47651","SEMIMAJOR_AXIS":"6925.312","EPOCH":"2022-01-15T18:05:21.785568"},{"OBJECT_ID":"2021-012AJ","SITE":"AFETR","CLASSIFICATION_TYPE":"U","MEAN_MOTION":"15.06395353","ELEMENT_SET_NO":"999","TLE_LINE2":"2 47652  53.0566  29.0157 0001569  67.3307 292.7848 15.06395353 51244","INCLINATION":"53.0566","PERIAPSIS":"546.141","RCS_SIZE":"LARGE","OBJECT_NAME":"STARLINK-2036","COUNTRY_CODE":"US","EPHEMERIS_TYPE":"0","GP_ID":"193923180","MEAN_ANOMALY":"292.7848","REV_AT_EPOCH":"5124","TLE_LINE1":"1 47652U 21012AJ  22015.51509160  .00000874  00000-0  77582-4 0  9999","BSTAR":"0.00007758200000","MEAN_MOTION_DOT":"0.00000874","LAUNCH_DATE":"2021-02-16","APOAPSIS":"548.314","RA_OF_ASC_NODE":"29.0157","MEAN_ELEMENT_THEORY":"SGP4","ARG_OF_PERICENTER":"67.3307","CENTER_NAME":"EARTH","DECAY_DATE":null,"REF_FRAME":"TEME","FILE":"3273960","MEAN_MOTION_DDOT":"0.0000000000000","PERIOD":"95.592","TIME_SYSTEM":"UTC","SEMIMAJOR_AXIS":"6925.363","NORAD_CAT_ID":"47652","EPOCH":"2022-01-15T12:21:43.914240","OBJECT_TYPE":"PAYLOAD","ECCENTRICITY":"0.00015690"},{"PERIAPSIS":"546.100","INCLINATION":"53.0548","TLE_LINE2":"2 47653  53.0548   8.1353 0001545  57.8216 302.2923 15.06414296 52068","ELEMENT_SET_NO":"999","MEAN_MOTION":"15.06414296","CLASSIFICATION_TYPE":"U","SITE":"AFETR","OBJECT_ID":"2021-012AK","MEAN_ANOMALY":"302.2923","GP_ID":"193948100","EPHEMERIS_TYPE":"0","COUNTRY_CODE":"US","OBJECT_NAME":"STARLINK-2037","RCS_SIZE":"LARGE","DECAY_DATE":null,"REF_FRAME":"TEME","CENTER_NAME":"EARTH","ARG_OF_PERICENTER":"57.8216","MEAN_ELEMENT_THEORY":"SGP4","RA_OF_ASC_NODE":"8.1353","MEAN_MOTION_DOT":"0.00003530","LAUNCH_DATE":"2021-02-16","APOAPSIS":"548.240","BSTAR":"0.00025565000000","TLE_LINE1":"1 47653U 21012AK  22015.70859924  .00003530  00000-0  25565-3 0  9992","REV_AT_EPOCH":"5206","ECCENTRICITY":"0.00015450","OBJECT_TYPE":"PAYLOAD","EPOCH":"2022-01-15T17:00:22.974336","NORAD_CAT_ID":"47653","SEMIMAJOR_AXIS":"6925.305","TIME_SYSTEM":"UTC","PERIOD":"95.591","FILE":"3274074","MEAN_MOTION_DDOT":"0.0000000000000"},{"MEAN_ANOMALY":"287.0346","GP_ID":"193946354","COUNTRY_CODE":"US","EPHEMERIS_TYPE":"0","OBJECT_NAME":"STARLINK-2038","RCS_SIZE":"LARGE","PERIAPSIS":"546.215","TLE_LINE2":"2 47654  53.0551  28.0944 0001387  73.0794 287.0346 15.06412523 51794","INCLINATION":"53.0551","ELEMENT_SET_NO":"999","CLASSIFICATION_TYPE":"U","MEAN_MOTION":"15.06412523","OBJECT_ID":"2021-012AL","SITE":"AFETR","OBJECT_TYPE":"PAYLOAD","ECCENTRICITY":"0.00013870","SEMIMAJOR_AXIS":"6925.310","NORAD_CAT_ID":"47654","EPOCH":"2022-01-15T17:13:38.676000","TIME_SYSTEM":"UTC","MEAN_MOTION_DDOT":"0.0000000000000","FILE":"3274074","PERIOD":"95.591","CENTER_NAME":"EARTH","DECAY_DATE":null,"REF_FRAME":"TEME","MEAN_ELEMENT_THEORY":"SGP4","ARG_OF_PERICENTER":"73.0794","APOAPSIS":"548.136","LAUNCH_DATE":"2021-02-16","MEAN_MOTION_DOT":"0.00002571","RA_OF_ASC_NODE":"28.0944","TLE_LINE1":"1 47654U 21012AL  22015.71780875  .00002571  00000-0  19135-3 0  9992","BSTAR":"0.00019135000000","REV_AT_EPOCH":"5179"},{"ECCENTRICITY":"0.00015740","OBJECT_TYPE":"PAYLOAD","EPOCH":"2022-01-15T12:16:24.781152","NORAD_CAT_ID":"47655","SEMIMAJOR_AXIS":"6925.319","TIME_SYSTEM":"UTC","PERIOD":"95.592","MEAN_MOTION_DDOT":"0.0000000000000","FILE":"3273961","DECAY_DATE":null,"REF_FRAME":"TEME","CENTER_NAME":"EARTH","ARG_OF_PERICENTER":"66.3603","MEAN_ELEMENT_THEORY":"SGP4","RA_OF_ASC_NODE":"29.0281","LAUNCH_DATE":"2021-02-16","MEAN_MOTION_DOT":"0.00001066","APOAPSIS":"548.274","BSTAR":"0.00009039900000","TLE_LINE1":"1 47655U 21012AM  22015.51139793  .00001066  00000-0  90399-4 0  9998","REV_AT_EPOCH":"5124","MEAN_ANOMALY":"293.7551","GP_ID":"193923548","EPHEMERIS_TYPE":"0","COUNTRY_CODE":"US","OBJECT_NAME":"STARLINK-2039","RCS_SIZE":"LARGE","PERIAPSIS":"546.094","INCLINATION":"53.0566","TLE_LINE2":"2 47655  53.0566  29.0281 0001574  66.3603 293.7551 15.06409677 51246","ELEMENT_SET_NO":"999","MEAN_MOTION":"15.06409677","CLASSIFICATION_TYPE":"U","SITE":"AFETR","OBJECT_ID":"2021-012AM"},{"RCS_SIZE":"LARGE","OBJECT_NAME":"STARLINK-2040","COUNTRY_CODE":"US","EPHEMERIS_TYPE":"0","GP_ID":"193947855","MEAN_ANOMALY":"304.1880","OBJECT_ID":"2021-012AN","SITE":"AFETR","CLASSIFICATION_TYPE":"U","MEAN_MOTION":"15.06409542","ELEMENT_SET_NO":"999","TLE_LINE2":"2 47656  53.0555   7.4611 0001859  55.9285 304.1880 15.06409542 52095","INCLINATION":"53.0555","PERIAPSIS":"545.897","FILE":"3274074","MEAN_MOTION_DDOT":"0.0000000000000","PERIOD":"95.592","TIME_SYSTEM":"UTC","SEMIMAJOR_AXIS":"6925.319","NORAD_CAT_ID":"47656","EPOCH":"2022-01-15T20:37:59.773440","OBJECT_TYPE":"PAYLOAD","ECCENTRICITY":"0.00018590","REV_AT_EPOCH":"5209","TLE_LINE1":"1 47656U 21012AN  22015.85971960  .00002857  00000-0  21056-3 0  9998","BSTAR":"0.00021056000000","MEAN_MOTION_DOT":"0.00002857","LAUNCH_DATE":"2021-02-16","APOAPSIS":"548.472","RA_OF_ASC_NODE":"7.4611","MEAN_ELEMENT_THEORY":"SGP4","ARG_OF_PERICENTER":"55.9285","CENTER_NAME":"EARTH","DECAY_DATE":null,"REF_FRAME":"TEME"},{"RCS_SIZE":"LARGE","OBJECT_NAME":"STARLINK-2041","EPHEMERIS_TYPE":"0","COUNTRY_CODE":"US","GP_ID":"193947601","MEAN_ANOMALY":"293.7004","SITE":"AFETR","OBJECT_ID":"2021-012AP","MEAN_MOTION":"15.06412526","CLASSIFICATION_TYPE":"U","ELEMENT_SET_NO":"999","INCLINATION":"53.0548","TLE_LINE2":"2 47657  53.0548  28.0437 0001641  66.4157 293.7004 15.06412526 51790","PERIAPSIS":"546.039","PERIOD":"95.591","FILE":"3274074","MEAN_MOTION_DDOT":"0.0000000000000","TIME_SYSTEM":"UTC","EPOCH":"2022-01-15T17:34:52.834080","SEMIMAJOR_AXIS":"6925.310","NORAD_CAT_ID":"47657","ECCENTRICITY":"0.00016410","OBJECT_TYPE":"PAYLOAD","REV_AT_EPOCH":"5179","BSTAR":"0.00021614000000","TLE_LINE1":"1 47657U 21012AP  22015.73255595  .00002940  00000-0  21614-3 0  9998","RA_OF_ASC_NODE":"28.0437","LAUNCH_DATE":"2021-02-16","MEAN_MOTION_DOT":"0.00002940","APOAPSIS":"548.312","ARG_OF_PERICENTER":"66.4157","MEAN_ELEMENT_THEORY":"SGP4","DECAY_DATE":null,"REF_FRAME":"TEME","CENTER_NAME":"EARTH"},{"DECAY_DATE":null,"REF_FRAME":"TEME","CENTER_NAME":"EARTH","ARG_OF_PERICENTER":"68.7346","MEAN_ELEMENT_THEORY":"SGP4","RA_OF_ASC_NODE":"28.0718","LAUNCH_DATE":"2021-02-16","APOAPSIS":"548.286","MEAN_MOTION_DOT":"0.00000103","BSTAR":"0.00002583700000","TLE_LINE1":"1 47658U 21012AQ  22015.72518722  .00000103  00000-0  25837-4 0  9993","REV_AT_EPOCH":"5181","ECCENTRICITY":"0.00015710","OBJECT_TYPE":"PAYLOAD","EPOCH":"2022-01-15T17:24:16.175808","SEMIMAJOR_AXIS":"6925.333","NORAD_CAT_ID":"47658","TIME_SYSTEM":"UTC","PERIOD":"95.592","FILE":"3274074","MEAN_MOTION_DDOT":"0.0000000000000","PERIAPSIS":"546.110","INCLINATION":"53.0561","TLE_LINE2":"2 47658  53.0561  28.0718 0001571  68.7346 291.3810 15.06405090 51815","ELEMENT_SET_NO":"999","MEAN_MOTION":"15.06405090","CLASSIFICATION_TYPE":"U","OBJECT_ID":"2021-012AQ","SITE":"AFETR","MEAN_ANOMALY":"291.3810","GP_ID":"193946854","EPHEMERIS_TYPE":"0","COUNTRY_CODE":"US","OBJECT_NAME":"STARLINK-2042","RCS_SIZE":"LARGE"}];
